[
    {
        "OBJECT_NAME": "NAVSTAR 16 (USA 47)",
        "OBJECT_ID": "1989-085A",
        "EPOCH": "2025-03-09T17:57:38.708352",
        "MEAN_MOTION": 1.89426189,
        "ECCENTRICITY": 0.0008915,
        "INCLINATION": 54.0003,
        "RA_OF_ASC_NODE": 200.0301,
        "ARG_OF_PERICENTER": 70.3367,
        "MEAN_ANOMALY": 288.5702,
        "EPHEMERIS_TYPE": 0,
        "CLASSIFICATION_TYPE": "U",
        "NORAD_CAT_ID": 20302,
        "ELEMENT_SET_NO": 999,
        "REV_AT_EPOCH": 24973,
        "BSTAR": 0,
        "MEAN_MOTION_DOT": -3e-07,
        "MEAN_MOTION_DDOT": 0
    },
    {
        "OBJECT_NAME": "NAVSTAR 17 (USA 49)",
        "OBJECT_ID": "1989-097A",
        "EPOCH": "2025-03-08T11:22:54.801696",
        "MEAN_MOTION": 1.89175271,
        "ECCENTRICITY": 0.0024639,
        "INCLINATION": 56.1776,
        "RA_OF_ASC_NODE": 27.1239,
        "ARG_OF_PERICENTER": 313.16,
        "MEAN_ANOMALY": 163.4018,
        "EPHEMERIS_TYPE": 0,
        "CLASSIFICATION_TYPE": "U",
        "NORAD_CAT_ID": 20361,
        "ELEMENT_SET_NO": 999,
        "REV_AT_EPOCH": 24054,
        "BSTAR": 0,
        "MEAN_MOTION_DOT": -8.5e-07,
        "MEAN_MOTION_DDOT": 0
    },
    {
        "OBJECT_NAME": "NAVSTAR 18 (USA 50)",
        "OBJECT_ID": "1990-008A",
        "EPOCH": "2025-03-10T03:41:38.758848",
        "MEAN_MOTION": 1.8959787,
        "ECCENTRICITY": 0.0015314,
        "INCLINATION": 54.7733,
        "RA_OF_ASC_NODE": 149.8758,
        "ARG_OF_PERICENTER": 274.3742,
        "MEAN_ANOMALY": 85.2856,
        "EPHEMERIS_TYPE": 0,
        "CLASSIFICATION_TYPE": "U",
        "NORAD_CAT_ID": 20452,
        "ELEMENT_SET_NO": 999,
        "REV_AT_EPOCH": 24762,
        "BSTAR": 0,
        "MEAN_MOTION_DOT": -3.5e-07,
        "MEAN_MOTION_DDOT": 0
    },
    {
        "OBJECT_NAME": "NAVSTAR 19 (USA 54)",
        "OBJECT_ID": "1990-025A",
        "EPOCH": "2025-03-10T05:23:00.348576",
        "MEAN_MOTION": 1.91039157,
        "ECCENTRICITY": 0.0043138,
        "INCLINATION": 53.7665,
        "RA_OF_ASC_NODE": 262.8077,
        "ARG_OF_PERICENTER": 218.2349,
        "MEAN_ANOMALY": 318.5409,
        "EPHEMERIS_TYPE": 0,
        "CLASSIFICATION_TYPE": "U",
        "NORAD_CAT_ID": 20533,
        "ELEMENT_SET_NO": 999,
        "REV_AT_EPOCH": 24622,
        "BSTAR": 0,
        "MEAN_MOTION_DOT": 2.3e-07,
        "MEAN_MOTION_DDOT": 0
    },
    {
        "OBJECT_NAME": "NAVSTAR 20 (USA 63)",
        "OBJECT_ID": "1990-068A",
        "EPOCH": "2025-03-10T04:03:38.920608",
        "MEAN_MOTION": 1.87186266,
        "ECCENTRICITY": 0.0037668,
        "INCLINATION": 54.5471,
        "RA_OF_ASC_NODE": 90.7147,
        "ARG_OF_PERICENTER": 321.1363,
        "MEAN_ANOMALY": 33.3364,
        "EPHEMERIS_TYPE": 0,
        "CLASSIFICATION_TYPE": "U",
        "NORAD_CAT_ID": 20724,
        "ELEMENT_SET_NO": 999,
        "REV_AT_EPOCH": 24123,
        "BSTAR": 0,
        "MEAN_MOTION_DOT": 1.5e-07,
        "MEAN_MOTION_DDOT": 0
    },
    {
        "OBJECT_NAME": "NAVSTAR 21 (USA 64)",
        "OBJECT_ID": "1990-088A",
        "EPOCH": "2025-03-09T18:05:38.654304",
        "MEAN_MOTION": 1.87752443,
        "ECCENTRICITY": 0.0024401,
        "INCLINATION": 56.2675,
        "RA_OF_ASC_NODE": 25.6247,
        "ARG_OF_PERICENTER": 285.1211,
        "MEAN_ANOMALY": 258.534,
        "EPHEMERIS_TYPE": 0,
        "CLASSIFICATION_TYPE": "U",
        "NORAD_CAT_ID": 20830,
        "ELEMENT_SET_NO": 999,
        "REV_AT_EPOCH": 24408,
        "BSTAR": 0,
        "MEAN_MOTION_DOT": -9.4e-07,
        "MEAN_MOTION_DDOT": 0
    },
    {
        "OBJECT_NAME": "NAVSTAR 22 (USA 66)",
        "OBJECT_ID": "1990-103A",
        "EPOCH": "2025-03-04T08:32:59.246592",
        "MEAN_MOTION": 1.88155318,
        "ECCENTRICITY": 0.002082,
        "INCLINATION": 55.7805,
        "RA_OF_ASC_NODE": 67.7844,
        "ARG_OF_PERICENTER": 82.0808,
        "MEAN_ANOMALY": 278.1792,
        "EPHEMERIS_TYPE": 0,
        "CLASSIFICATION_TYPE": "U",
        "NORAD_CAT_ID": 20959,
        "ELEMENT_SET_NO": 999,
        "REV_AT_EPOCH": 24702,
        "BSTAR": 0,
        "MEAN_MOTION_DOT": -1.8e-07,
        "MEAN_MOTION_DDOT": 0
    },
    {
        "OBJECT_NAME": "NAVSTAR 23 (USA 71)",
        "OBJECT_ID": "1991-047A",
        "EPOCH": "2025-03-08T12:58:09.525792",
        "MEAN_MOTION": 1.91857517,
        "ECCENTRICITY": 0.0033276,
        "INCLINATION": 56.4854,
        "RA_OF_ASC_NODE": 9.0326,
        "ARG_OF_PERICENTER": 126.1437,
        "MEAN_ANOMALY": 350.5734,
        "EPHEMERIS_TYPE": 0,
        "CLASSIFICATION_TYPE": "U",
        "NORAD_CAT_ID": 21552,
        "ELEMENT_SET_NO": 999,
        "REV_AT_EPOCH": 24245,
        "BSTAR": 0,
        "MEAN_MOTION_DOT": -1.1e-06,
        "MEAN_MOTION_DDOT": 0
    },
    {
        "OBJECT_NAME": "NAVSTAR 24 (USA 79)",
        "OBJECT_ID": "1992-009A",
        "EPOCH": "2025-03-08T12:05:15.021312",
        "MEAN_MOTION": 1.91828647,
        "ECCENTRICITY": 0.0050826,
        "INCLINATION": 54.2175,
        "RA_OF_ASC_NODE": 183.0867,
        "ARG_OF_PERICENTER": 54.3594,
        "MEAN_ANOMALY": 324.7766,
        "EPHEMERIS_TYPE": 0,
        "CLASSIFICATION_TYPE": "U",
        "NORAD_CAT_ID": 21890,
        "ELEMENT_SET_NO": 999,
        "REV_AT_EPOCH": 23716,
        "BSTAR": 0,
        "MEAN_MOTION_DOT": -3.4e-07,
        "MEAN_MOTION_DDOT": 0
    },
    {
        "OBJECT_NAME": "NAVSTAR 25 (USA 80)",
        "OBJECT_ID": "1992-019A",
        "EPOCH": "2025-03-06T06:59:01.923072",
        "MEAN_MOTION": 1.87660799,
        "ECCENTRICITY": 0.0030691,
        "INCLINATION": 55.3263,
        "RA_OF_ASC_NODE": 321.5201,
        "ARG_OF_PERICENTER": 335.7714,
        "MEAN_ANOMALY": 113.5078,
        "EPHEMERIS_TYPE": 0,
        "CLASSIFICATION_TYPE": "U",
        "NORAD_CAT_ID": 21930,
        "ELEMENT_SET_NO": 999,
        "REV_AT_EPOCH": 23267,
        "BSTAR": 0,
        "MEAN_MOTION_DOT": -8e-07,
        "MEAN_MOTION_DDOT": 0
    },
    {
        "OBJECT_NAME": "NAVSTAR 26 (USA 83)",
        "OBJECT_ID": "1992-039A",
        "EPOCH": "2025-03-08T09:58:44.043456",
        "MEAN_MOTION": 1.87911982,
        "ECCENTRICITY": 0.0005718,
        "INCLINATION": 55.3814,
        "RA_OF_ASC_NODE": 135.4939,
        "ARG_OF_PERICENTER": 276.5134,
        "MEAN_ANOMALY": 83.4745,
        "EPHEMERIS_TYPE": 0,
        "CLASSIFICATION_TYPE": "U",
        "NORAD_CAT_ID": 22014,
        "ELEMENT_SET_NO": 999,
        "REV_AT_EPOCH": 6650,
        "BSTAR": 0,
        "MEAN_MOTION_DOT": -3e-07,
        "MEAN_MOTION_DDOT": 0
    },
    {
        "OBJECT_NAME": "NAVSTAR 27 (USA 84)",
        "OBJECT_ID": "1992-058A",
        "EPOCH": "2025-03-08T05:56:50.942976",
        "MEAN_MOTION": 1.87561385,
        "ECCENTRICITY": 0.0016581,
        "INCLINATION": 54.6599,
        "RA_OF_ASC_NODE": 182.7273,
        "ARG_OF_PERICENTER": 39.9512,
        "MEAN_ANOMALY": 320.1466,
        "EPHEMERIS_TYPE": 0,
        "CLASSIFICATION_TYPE": "U",
        "NORAD_CAT_ID": 22108,
        "ELEMENT_SET_NO": 999,
        "REV_AT_EPOCH": 23428,
        "BSTAR": 0,
        "MEAN_MOTION_DOT": -3.1e-07,
        "MEAN_MOTION_DDOT": 0
    },
    {
        "OBJECT_NAME": "NAVSTAR 28 (USA 85)",
        "OBJECT_ID": "1992-079A",
        "EPOCH": "2025-03-08T16:44:49.948512",
        "MEAN_MOTION": 1.89108519,
        "ECCENTRICITY": 0.0024705,
        "INCLINATION": 55.3857,
        "RA_OF_ASC_NODE": 129.8579,
        "ARG_OF_PERICENTER": 352.3652,
        "MEAN_ANOMALY": 7.6571,
        "EPHEMERIS_TYPE": 0,
        "CLASSIFICATION_TYPE": "U",
        "NORAD_CAT_ID": 22231,
        "ELEMENT_SET_NO": 999,
        "REV_AT_EPOCH": 5333,
        "BSTAR": 0,
        "MEAN_MOTION_DOT": -2.3e-07,
        "MEAN_MOTION_DDOT": 0
    }
]