20302,NAVSTAR 16 (USA 47),1989,760.19,-1.0,-,54.0,Inactive,0,MEO,USA,USA,Unknown,Unknown,Unknown,1 20302U 89085A   25068.74836468 -.00000030  00000+0  00000+0 0  9996,2 20302  54.0003 200.0301 0008915  70.3367 288.5702  1.89426189249731,1.89426189,0.0008915,MEO
20361,NAVSTAR 17 (USA 49),1989,761.2,-1.0,-,56.18,Inactive,0,MEO,USA,USA,Unknown,Unknown,Unknown,1 20361U 89097A   25067.47424539 -.00000085  00000+0  00000+0 0  9995,2 20361  56.1776  27.1239 0024639 313.1600 163.4018  1.89175271240547,1.89175271,0.0024639,MEO
20452,NAVSTAR 18 (USA 50),1990,759.5,-1.0,-,54.77,Inactive,0,MEO,USA,USA,Unknown,Unknown,Unknown,1 20452U 90008A   25069.15392082 -.00000035  00000+0  00000+0 0  9999,2 20452  54.7733 149.8758 0015314 274.3742  85.2856  1.89597870247628,1.8959787,0.0015314,MEO
20533,NAVSTAR 19 (USA 54),1990,753.77,-1.0,-,53.77,Inactive,0,MEO,USA,USA,Unknown,Unknown,Unknown,1 20533U 90025A   25069.22430959  .00000023  00000+0  00000+0 0  9998,2 20533  53.7665 262.8077 0043138 218.2349 318.5409  1.91039157246229,1.91039157,0.0043138,MEO
20724,NAVSTAR 20 (USA 63),1990,769.29,-1.0,-,54.55,Inactive,0,MEO,USA,USA,Unknown,Unknown,Unknown,1 20724U 90068A   25069.16920047  .00000015  00000+0  00000+0 0  9993,2 20724  54.5471  90.7147 0037668 321.1363  33.3364  1.87186266241239,1.87186266,0.0037668,MEO
20830,NAVSTAR 21 (USA 64),1990,766.97,-1.0,-,56.27,Inactive,0,MEO,USA,USA,Unknown,Unknown,Unknown,1 20830U 90088A   25068.75391961 -.00000094  00000+0  00000+0 0  9992,2 20830  56.2675  25.6247 0024401 285.1211 258.5340  1.87752443244089,1.87752443,0.0024401,MEO
20959,NAVSTAR 22 (USA 66),1990,765.33,-1.0,-,55.78,Inactive,0,MEO,USA,USA,Unknown,Unknown,Unknown,1 20959U 90103A   25063.35624128 -.00000018  00000+0  00000+0 0  9993,2 20959  55.7805  67.7844 0020820  82.0808 278.1792  1.88155318247022,1.88155318,0.002082,MEO
21552,NAVSTAR 23 (USA 71),1991,750.56,-1.0,-,56.49,Inactive,0,MEO,USA,USA,Unknown,Unknown,Unknown,1 21552U 91047A   25067.54038803 -.00000110  00000+0  00000+0 0  9998,2 21552  56.4854   9.0326 0033276 126.1437 350.5734  1.91857517242452,1.91857517,0.0033276,MEO
21890,NAVSTAR 24 (USA 79),1992,750.67,-1.0,-,54.22,Inactive,0,MEO,USA,USA,Unknown,Unknown,Unknown,1 21890U 92009A   25067.50364608 -.00000034  00000+0  00000+0 0  9998,2 21890  54.2175 183.0867 0050826  54.3594 324.7766  1.91828647237160,1.91828647,0.0050826,MEO
21930,NAVSTAR 25 (USA 80),1992,767.34,-1.0,-,55.33,Inactive,0,MEO,USA,USA,Unknown,Unknown,Unknown,1 21930U 92019A   25065.29099448 -.00000080  00000+0  00000+0 0  9996,2 21930  55.3263 321.5201 0030691 335.7714 113.5078  1.87660799232672,1.87660799,0.0030691,MEO
22014,NAVSTAR 26 (USA 83),1992,766.32,-1.0,-,55.38,Inactive,0,MEO,USA,USA,Unknown,Unknown,Unknown,1 22014U 92039A   25067.41578754 -.00000030  00000+0  00000+0 0  9995,2 22014  55.3814 135.4939 0005718 276.5134  83.4745  1.87911982 66504,1.87911982,0.0005718,MEO
22108,NAVSTAR 27 (USA 84),1992,767.75,-1.0,-,54.66,Inactive,0,MEO,USA,USA,Unknown,Unknown,Unknown,1 22108U 92058A   25067.24781184 -.00000031  00000+0  00000+0 0  9995,2 22108  54.6599 182.7273 0016581  39.9512 320.1466  1.87561385234288,1.87561385,0.0016581,MEO
22231,NAVSTAR 28 (USA 85),1992,761.47,-1.0,-,55.39,Inactive,0,MEO,USA,USA,Unknown,Unknown,Unknown,1 22231U 92079A   25067.69780033 -.00000023  00000+0  00000+0 0  9997,2 22231  55.3857 129.8579 0024705 352.3652   7.6571  1.89108519 53332,1.89108519,0.0024705,MEO
